[{"OBJECT_NAME":"LAPAN-A3","OBJECT_ID":"2016-040E","EPOCH":"2026-03-09T23:01:57.724896","MEAN_MOTION":15.3238951,"ECCENTRICITY":0.00109839,"INCLINATION":97.1488,"RA_OF_ASC_NODE":68.4254,"ARG_OF_PERICENTER":22.062,"MEAN_ANOMALY":338.1093,"EPHEMERIS_TYPE":0,"CLASSIFICATION_TYPE":"U","NORAD_CAT_ID":41603,"ELEMENT_SET_NO":999,"REV_AT_EPOCH":53961,"BSTAR":0.00017567445,"MEAN_MOTION_DOT":5.428e-5,"MEAN_MOTION_DDOT":0},{"OBJECT_NAME":"STARLINK-31377","OBJECT_ID":"2024-027H","EPOCH":"2026-03-09T22:42:07.964064","MEAN_MOTION":15.30183299,"ECCENTRICITY":9.738e-5,"INCLINATION":53.1599,"RA_OF_ASC_NODE":308.7102,"ARG_OF_PERICENTER":86.7783,"MEAN_ANOMALY":273.3329,"EPHEMERIS_TYPE":0,"CLASSIFICATION_TYPE":"U","NORAD_CAT_ID":58938,"ELEMENT_SET_NO":999,"REV_AT_EPOCH":11736,"BSTAR":4.3431e-8,"MEAN_MOTION_DOT":-3.58e-6,"MEAN_MOTION_DDOT":0}]
